0 DELTA 1 DEB
1 18906U 73086HB  13282.49013684 -.00000013  00000-0  21715-3 0  9577
2 18906 102.3471 273.7192 0088898 225.3483 287.0213 12.55817766190699
0 DELTA 1 DEB
1 18906U 73086HB  13285.43895244 -.00000031  00000-0  10592-3 0  9586
2 18906 102.3466 276.7979 0088896 219.7333 298.5089 12.55818129191062
0 DELTA 1 DEB
1 18906U 73086HB  13287.89889132 -.00000048  00000-0  48667-5 0  9592
2 18906 102.3468 279.3662 0088912 215.0943 259.7593 12.55818351191377
0 DELTA 1 DEB
1 18906U 73086HB  13290.45702425 -.00000056  00000-0 -41279-4 0  9600
2 18906 102.3473 282.0368 0088929 210.2602 304.9519 12.55818481191694
0 DELTA 1 DEB
1 18906U 73086HB  13293.48369878 -.00000035  00000-0  84965-4 0  9613
2 18906 102.3479 285.1965 0088948 204.5500 308.3905 12.55818322192075
0 DELTA 1 DEB
1 18906U 73086HB  13295.93240160 -.00000022  00000-0  16427-3 0  9621
2 18906 102.3480 287.7532 0088969 199.9377 218.8408 12.55818229192380
